STARLINK-32098          
1 59704U 24086Y   26067.99576349 -.00000531  00000+0 -97656-5 0  9996
2 59704  43.0009  64.0121 0001402 255.1283 104.9413 15.27571772104001
PHISAT 2                
1 60470U 24149C   26068.78834181  .00008925  00000+0  31421-3 0  9996
2 60470  97.3806 148.6498 0001175 168.6230 191.5037 15.29548631 86792
